OBJECT_NAME,OBJECT_ID,EPOCH,MEAN_MOTION,ECCENTRICITY,INCLINATION,RA_OF_ASC_NODE,ARG_OF_PERICENTER,MEAN_ANOMALY,EPHEMERIS_TYPE,CLASSIFICATION_TYPE,NORAD_CAT_ID,ELEMENT_SET_NO,REV_AT_EPOCH,BSTAR,MEAN_MOTION_DOT,MEAN_MOTION_DDOT
NIMIQ 2,2002-062A,2026-07-07T14:56:21.795936,1.00269467,.0005778,9.4899,56.6786,49.5798,294.2492,0,U,27632,999,4438,0,-.6E-6,0
USA 167,2003-008A,2026-07-07T14:52:52.130784,1.00271223,.0003324,10.9992,43.2196,314.0589,29.8197,0,U,27691,999,697,0,.11E-6,0
USA 169 (MILSTAR-2 4),2003-012A,2026-07-07T11:46:23.227104,1.00269955,.00997605,12.3785,29.6699,10.0748,214.4306,0,U,27711,999,3315,0,-.19E-5,0
ASIASAT 4,2003-014A,2026-07-07T14:58:12.311904,1.00271609,.0002869,4.7551,75.4902,31.3191,190.8738,0,U,27718,999,4550,0,-.21E-5,0
HELLAS-SAT 2,2003-020A,2026-07-07T10:16:36.195744,1.00271631,.00033358,7.4017,67.6399,70.1885,291.6931,0,U,27811,999,4305,0,-.74E-6,0
THURAYA-2,2003-026A,2026-07-07T17:22:32.714400,1.00273056,.0002668,8.8705,31.8835,20.5458,177.9050,0,U,27825,999,8455,0,.134E-5,0
OPTUS C1,2003-028B,2026-07-07T14:42:50.884416,1.00270317,.0005372,6.9374,69.1601,34.8411,198.0360,0,U,27831,999,5326,0,-.141E-5,0
USA 170,2003-040A,2026-07-07T05:22:38.614656,1.00273331,.00020796,10.5392,47.7531,81.4897,260.8061,0,U,27875,999,3319,0,.134E-5,0
GALAXY 13 (HORIZONS-1),2003-044A,2026-07-07T16:27:22.877280,1.00274572,.0001751,1.4711,83.6027,23.0577,275.8370,0,U,27954,999,4677,0,.147E-5,0
YAMAL 202,2003-053A,2026-07-07T15:02:24.752832,1.00272201,.00034,6.3930,70.6912,30.0614,213.9899,0,U,28089,999,8290,0,-.69E-6,0
UFO 11 (USA 174),2003-057A,2026-07-07T13:56:38.723136,1.00272490,.0002674,8.9469,33.7266,84.1423,92.4502,0,U,28117,999,8265,0,-.96E-6,0
USA 176 (DSP 22),2004-004A,2026-07-07T10:05:22.272288,1.00269055,.00008608,12.0880,25.9141,289.1636,72.3472,0,U,28158,999,3314,0,-.289E-5,0
ABS-4 (MOBISAT-1),2004-007A,2026-07-07T17:27:32.233824,1.00271502,.0004613,6.0919,71.7574,34.5121,142.2330,0,U,28184,999,5254,0,.51E-6,0
INTELSAT 10-02,2004-022A,2026-07-07T17:09:48.807936,1.00267511,.000054,0.0454,259.4222,290.6114,352.0949,0,U,28358,999,8076,0,.3E-7,0
ANIK F2,2004-027A,2026-07-07T14:55:44.357088,1.00271631,.0003812,3.3370,79.1751,26.2597,292.9663,0,U,28378,999,4146,0,-.37E-6,0
AMC-15,2004-041A,2026-07-07T16:40:06.655872,1.00271287,.0002313,0.0228,322.6727,155.4638,312.4968,0,U,28446,999,7950,0,-.73E-6,0
NSS-10,2005-003A,2026-07-07T11:51:31.466016,1.00270976,.00028294,6.4971,70.2053,39.2297,316.4572,0,U,28526,999,5335,0,-.241E-5,0
INMARSAT 4-F1,2005-009A,2026-07-07T18:00:59.029344,1.00271200,.0002686,5.1936,42.7729,68.5944,262.7006,0,U,28628,999,7787,0,.44E-6,0
DIRECTV 8,2005-019A,2026-07-07T14:53:29.572224,1.00271844,.0003149,0.0190,47.3574,71.9739,270.5791,0,U,28659,999,7727,0,.16E-6,0
GALAXY 28 (G-28),2005-022A,2026-07-07T17:02:19.527072,1.00271522,.0002228,3.3482,78.6868,29.0096,46.4624,0,U,28702,999,5218,0,-.187E-5,0
THAICOM 4,2005-028A,2026-07-07T17:44:08.144160,1.00269921,.0001594,0.2952,85.6266,8.9891,216.6234,0,U,28786,999,5245,0,-.347E-5,0
ANIK F1R,2005-036A,2026-07-07T16:39:29.216160,1.00271520,.000394,4.3618,76.3267,21.3949,330.5092,0,U,28868,999,4665,0,-.63E-6,0
SYRACUSE 3A,2005-041B,2026-07-07T17:23:25.128960,1.00270793,.0002735,4.6931,75.5870,23.7142,133.8612,0,U,28885,999,7595,0,.141E-5,0
INMARSAT 4-F2,2005-044A,2026-07-07T14:28:30.952128,1.00272653,.0003017,5.1191,43.6448,52.4867,190.0555,0,U,28899,999,7572,0,-.248E-5,0
METEOSAT-9 (MSG-2),2005-049B,2026-07-07T05:24:18.847296,1.00268823,.00021611,9.4037,53.9656,0.5612,357.4517,0,U,28912,999,719,0,.133E-5,0
EUTELSAT 174A,2005-052A,2026-07-07T14:52:53.145120,1.00269725,.0005925,4.2671,76.2760,32.2621,214.2425,0,U,28924,999,5253,0,.21E-6,0
ECHOSTAR 10,2006-003A,2026-07-07T16:38:44.288160,1.00272790,.0001228,0.0470,291.0173,160.9962,333.1525,0,U,28935,999,7466,0,-.4E-6,0
SPAINSAT,2006-007A,2026-07-07T06:59:52.540512,1.00271711,.00048337,0.6120,86.2144,17.6051,256.2363,0,U,28945,999,7441,0,-.202E-5,0
JCSAT-5A,2006-010A,2026-07-07T17:47:45.295872,1.00269963,.0001837,1.1595,84.0037,18.7833,221.8948,0,U,29045,999,7397,0,-.313E-5,0
ASTRA 1KR,2006-012A,2026-07-07T17:15:33.384096,1.00272980,.0003391,0.5236,83.2094,19.5639,100.7974,0,U,29055,999,4590,0,.134E-5,0
GALAXY 16 (G-16),2006-023A,2026-07-07T14:59:14.022240,1.00270682,.0002501,0.0308,131.3230,339.9613,300.1080,0,U,29236,999,7317,0,-.111E-5,0
EUTELSAT 33F,2006-032A,2026-07-07T17:19:32.999808,1.00274585,.0003585,1.7114,82.0156,14.7024,121.9556,0,U,29270,999,4751,0,.17E-5,0
