NIMIQ 2                 
1 27632U 02062A   26188.62247449 -.00000060  00000+0  00000+0 0  9998
2 27632   9.4899  56.6786 0005778  49.5798 294.2492  1.00269467 44384
USA 167                 
1 27691U 03008A   26188.62004781  .00000011  00000+0  00000+0 0  9999
2 27691  10.9992  43.2196 0003324 314.0589  29.8197  1.00271223  6970
USA 169 (MILSTAR-2 4)   
1 27711U 03012A   26188.49054661 -.00000190  00000+0  00000+0 0  9993
2 27711  12.3785  29.6699 0099760  10.0748 214.4306  1.00269955 33157
ASIASAT 4               
1 27718U 03014A   26188.62375361 -.00000210  00000+0  00000+0 0  9993
2 27718   4.7551  75.4902 0002869  31.3191 190.8738  1.00271609 45505
HELLAS-SAT 2            
1 27811U 03020A   26188.42819671 -.00000074  00000+0  00000+0 0  9997
2 27811   7.4017  67.6399 0003335  70.1885 291.6931  1.00271631 43057
THURAYA-2               
1 27825U 03026A   26188.72398975  .00000134  00000+0  00000+0 0  9996
2 27825   8.8705  31.8835 0002668  20.5458 177.9050  1.00273056 84553
OPTUS C1                
1 27831U 03028B   26188.61308894 -.00000141  00000+0  00000+0 0  9993
2 27831   6.9374  69.1601 0005372  34.8411 198.0360  1.00270317 53267
USA 170                 
1 27875U 03040A   26188.22405804  .00000134  00000+0  00000+0 0  9992
2 27875  10.5392  47.7531 0002079  81.4897 260.8061  1.00273331 33192
GALAXY 13 (HORIZONS-1)  
1 27954U 03044A   26188.68568145  .00000147  00000+0  00000+0 0  9996
2 27954   1.4711  83.6027 0001751  23.0577 275.8370  1.00274572 46771
YAMAL 202               
1 28089U 03053A   26188.62667538 -.00000069  00000+0  00000+0 0  9990
2 28089   6.3930  70.6912 0003400  30.0614 213.9899  1.00272201 82901
UFO 11 (USA 174)        
1 28117U 03057A   26188.58100374 -.00000096  00000+0  00000+0 0  9991
2 28117   8.9469  33.7266 0002674  84.1423  92.4502  1.00272490 82653
USA 176 (DSP 22)        
1 28158U 04004A   26188.42039667 -.00000289  00000+0  00000+0 0  9992
2 28158  12.0880  25.9141 0000860 289.1636  72.3472  1.00269055 33140
ABS-4 (MOBISAT-1)       
1 28184U 04007A   26188.72745641  .00000051  00000+0  00000+0 0  9999
2 28184   6.0919  71.7574 0004613  34.5121 142.2330  1.00271502 52540
INTELSAT 10-02          
1 28358U 04022A   26188.71514824  .00000003  00000+0  00000+0 0  9992
2 28358   0.0454 259.4222 0000540 290.6114 352.0949  1.00267511 80765
ANIK F2                 
1 28378U 04027A   26188.62204117 -.00000037  00000+0  00000+0 0  9998
2 28378   3.3370  79.1751 0003812  26.2597 292.9663  1.00271631 41464
AMC-15                  
1 28446U 04041A   26188.69452148 -.00000073  00000+0  00000+0 0  9996
2 28446   0.0228 322.6727 0002313 155.4638 312.4968  1.00271287 79500
NSS-10                  
1 28526U 05003A   26188.49411419 -.00000241  00000+0  00000+0 0  9995
2 28526   6.4971  70.2053 0002829  39.2297 316.4572  1.00270976 53358
INMARSAT 4-F1           
1 28628U 05009A   26188.75068321  .00000044  00000+0  00000+0 0  9993
2 28628   5.1936  42.7729 0002686  68.5944 262.7006  1.00271200 77876
DIRECTV 8               
1 28659U 05019A   26188.62048116  .00000016  00000+0  00000+0 0  9993
2 28659   0.0190  47.3574 0003149  71.9739 270.5791  1.00271844 77276
GALAXY 28 (G-28)        
1 28702U 05022A   26188.70994823 -.00000187  00000+0  00000+0 0  9990
2 28702   3.3482  78.6868 0002228  29.0096  46.4624  1.00271522 52186
THAICOM 4               
1 28786U 05028A   26188.73898315 -.00000347  00000+0  00000+0 0  9998
2 28786   0.2952  85.6266 0001594   8.9891 216.6234  1.00269921 52458
ANIK F1R                
1 28868U 05036A   26188.69408815 -.00000063  00000+0  00000+0 0  9990
2 28868   4.3618  76.3267 0003940  21.3949 330.5092  1.00271520 46652
SYRACUSE 3A             
1 28885U 05041B   26188.72459640  .00000141  00000+0  00000+0 0  9997
2 28885   4.6931  75.5870 0002735  23.7142 133.8612  1.00270793 75953
INMARSAT 4-F2           
1 28899U 05044A   26188.60313602 -.00000248  00000+0  00000+0 0  9998
2 28899   5.1191  43.6448 0003017  52.4867 190.0555  1.00272653 75729
METEOSAT-9 (MSG-2)      
1 28912U 05049B   26188.22521814  .00000133  00000+0  00000+0 0  9995
2 28912   9.4037  53.9656 0002161   0.5612 357.4517  1.00268823  7194
EUTELSAT 174A           
1 28924U 05052A   26188.62005955  .00000021  00000+0  00000+0 0  9995
2 28924   4.2671  76.2760 0005925  32.2621 214.2425  1.00269725 52539
ECHOSTAR 10             
1 28935U 06003A   26188.69356815 -.00000040  00000+0  00000+0 0  9997
2 28935   0.0470 291.0173 0001228 160.9962 333.1525  1.00272790 74662
SPAINSAT                
1 28945U 06007A   26188.29158033 -.00000202  00000+0  00000+0 0  9990
2 28945   0.6120  86.2144 0004833  17.6051 256.2363  1.00271711 74415
JCSAT-5A                
1 29045U 06010A   26188.74149648 -.00000313  00000+0  00000+0 0  9991
2 29045   1.1595  84.0037 0001837  18.7833 221.8948  1.00269963 73970
ASTRA 1KR               
1 29055U 06012A   26188.71913639  .00000134  00000+0  00000+0 0  9990
2 29055   0.5236  83.2094 0003391  19.5639 100.7974  1.00272980 45909
GALAXY 16 (G-16)        
1 29236U 06023A   26188.62446785 -.00000111  00000+0  00000+0 0  9992
2 29236   0.0308 131.3230 0002501 339.9613 300.1080  1.00270682 73176
EUTELSAT 33F            
1 29270U 06032A   26188.72190972  .00000170  00000+0  00000+0 0  9999
2 29270   1.7114  82.0156 0003585  14.7024 121.9556  1.00274585 47515
